{
  "type": "FeatureCollection",
  "features": [
    {
      "type": "Feature",
      "properties": {
        "description": "Exemplo de lote em WGS 84"
      },
      "geometry": {
        "type": "Polygon",
        "coordinates": [
          [
            [-46.68323356, -23.56722976],
            [-46.68320449, -23.56727643],
            [-46.68318334, -23.5673104],
            [-46.68317127, -23.56732978],
            [-46.68314574, -23.56737078],
            [-46.68314416, -23.56737332],
            [-46.68310033, -23.5674437],
            [-46.68305602, -23.56751486],
            [-46.68302691, -23.56749937],
            [-46.68302285, -23.56749721],
            [-46.68294841, -23.56745761],
            [-46.68292105, -23.56744306],
            [-46.68294493, -23.56740336],
            [-46.68299594, -23.56731856],
            [-46.68309408, -23.56715543],
            [-46.68323356, -23.56722976]
          ]
        ]
      }
    }
  ]
}
