{
  "type": "FeatureCollection",
  "features": [
    {
      "type": "Feature",
      "properties": {
        "description": "Exemplo de lote em SIRGAS 2000 UTM 23S"
      },
      "geometry": {
        "type": "Polygon",
        "coordinates": [
          [
            [
              328211.9316094143,
              7392676.692054894
            ],
            [
              328214.9597541332,
              7392671.558663815
            ],
            [
              328217.1629117903,
              7392667.8221771
            ],
            [
              328218.4202135622,
              7392665.690503277
            ],
            [
              328221.0796194202,
              7392661.180763815
            ],
            [
              328221.24420798605,
              7392660.901378006
            ],
            [
              328225.8098705191,
              7392653.160030941
            ],
            [
              328230.4255408244,
              7392645.332880776
            ],
            [
              328233.37688636174,
              7392647.0831601
            ],
            [
              328233.7885139747,
              7392647.327228317
            ],
            [
              328241.33570307336,
              7392651.801818095
            ],
            [
              328244.1096369461,
              7392653.445900518
            ],
            [
              328241.6203601593,
              7392657.813659747
            ],
            [
              328236.30302237265,
              7392667.143278087
            ],
            [
              328226.0728099514,
              7392685.090672461
            ],
            [
              328211.9316094143,
              7392676.692054894
            ]
          ]
        ]
      }
    }
  ],
  "crs": {
    "type": "name",
    "properties": {
      "name": "urn:ogc:def:crs:EPSG::31983"
    }
  }
}